[{"OBJECT_NAME":"STARLINK-5958","OBJECT_ID":"2023-083AX","EPOCH":"2026-03-09T22:00:01.999584","MEAN_MOTION":15.07954697,"ECCENTRICITY":0.00017425,"INCLINATION":42.9999,"RA_OF_ASC_NODE":67.4319,"ARG_OF_PERICENTER":284.0357,"MEAN_ANOMALY":152.5991,"EPHEMERIS_TYPE":0,"CLASSIFICATION_TYPE":"U","NORAD_CAT_ID":56921,"ELEMENT_SET_NO":999,"REV_AT_EPOCH":558,"BSTAR":0.0043972637,"MEAN_MOTION_DOT":0.00069182,"MEAN_MOTION_DDOT":0},{"OBJECT_NAME":"DISKSAT C","OBJECT_ID":"2025-305A","EPOCH":"2026-03-09T19:16:32.318976","MEAN_MOTION":15.07852977,"ECCENTRICITY":0.00045341,"INCLINATION":45.0017,"RA_OF_ASC_NODE":250.1278,"ARG_OF_PERICENTER":310.7706,"MEAN_ANOMALY":49.2776,"EPHEMERIS_TYPE":0,"CLASSIFICATION_TYPE":"U","NORAD_CAT_ID":67219,"ELEMENT_SET_NO":999,"REV_AT_EPOCH":1231,"BSTAR":0.00075564202,"MEAN_MOTION_DOT":0.00011541,"MEAN_MOTION_DDOT":0}]
